[{"OBJECT_NAME":"GEOSCAN 5 (RS92S5)","OBJECT_ID":"2025-155R","EPOCH":"2026-03-09T22:01:07.273920","MEAN_MOTION":15.30265233,"ECCENTRICITY":0.00070849,"INCLINATION":97.4462,"RA_OF_ASC_NODE":37.7456,"ARG_OF_PERICENTER":154.5846,"MEAN_ANOMALY":205.5745,"EPHEMERIS_TYPE":0,"CLASSIFICATION_TYPE":"U","NORAD_CAT_ID":64891,"ELEMENT_SET_NO":999,"REV_AT_EPOCH":6562,"BSTAR":0.00068639307,"MEAN_MOTION_DOT":0.00020065,"MEAN_MOTION_DDOT":0},{"OBJECT_NAME":"STARLINK-35548","OBJECT_ID":"2025-243AC","EPOCH":"2026-03-09T18:06:26.286624","MEAN_MOTION":15.30193505,"ECCENTRICITY":0.00011366,"INCLINATION":53.1599,"RA_OF_ASC_NODE":244.9529,"ARG_OF_PERICENTER":65.1193,"MEAN_ANOMALY":294.9926,"EPHEMERIS_TYPE":0,"CLASSIFICATION_TYPE":"U","NORAD_CAT_ID":66203,"ELEMENT_SET_NO":999,"REV_AT_EPOCH":2066,"BSTAR":0.00080914293,"MEAN_MOTION_DOT":0.00023677,"MEAN_MOTION_DDOT":0}]
